IRIDIUM 63              
1 25286U 98021B   25107.50847411  .00000765  00000+0  25414-3 0  9994
2 25286  86.3931 107.5945 0002453  90.8579 269.2899 14.36482296415132
IRIDIUM 69              
1 25319U 98026A   25107.63749729  .00000862  00000+0  26290-3 0  9994
2 25319  86.3937 121.0159 0001838 155.8959 204.2327 14.40894095414585
IRIDIUM 71              
1 25320U 98026B   25107.44415997  .00000906  00000+0  27535-3 0  9994
2 25320  86.3930 115.7980 0000687  23.6877 336.4354 14.41091173414848
IRIDIUM 73              
1 25344U 98032C   25107.88589155  .00001388  00000+0  34151-3 0  9990
2 25344  86.4387  72.4233 0002246 103.0556 257.0900 14.51618180422119
IRIDIUM 82              
1 25467U 98051A   25107.55615548  .00030114  00000+0  94012-3 0  9998
2 25467  86.3671 139.4768 0092675 164.6822 195.7267 15.28855295414683
